[{"OBJECT_NAME":"STARLINK-30609","OBJECT_ID":"2023-160L","EPOCH":"2025-08-04T14:35:35.038752","MEAN_MOTION":15.02533984,"ECCENTRICITY":0.0001252,"INCLINATION":43.0023,"RA_OF_ASC_NODE":179.7789,"ARG_OF_PERICENTER":276.1544,"MEAN_ANOMALY":83.9156,"EPHEMERIS_TYPE":0,"CLASSIFICATION_TYPE":"U","NORAD_CAT_ID":58085,"ELEMENT_SET_NO":999,"REV_AT_EPOCH":10026,"BSTAR":1.785e-5,"MEAN_MOTION_DOT":3.8e-7,"MEAN_MOTION_DDOT":0},{"OBJECT_NAME":"STARLINK-30583","OBJECT_ID":"2023-160M","EPOCH":"2025-08-04T14:30:45.247968","MEAN_MOTION":15.02551649,"ECCENTRICITY":0.0001336,"INCLINATION":43.0014,"RA_OF_ASC_NODE":179.7524,"ARG_OF_PERICENTER":275.1593,"MEAN_ANOMALY":84.9097,"EPHEMERIS_TYPE":0,"CLASSIFICATION_TYPE":"U","NORAD_CAT_ID":58086,"ELEMENT_SET_NO":999,"REV_AT_EPOCH":10026,"BSTAR":0.00015058,"MEAN_MOTION_DOT":1.832e-5,"MEAN_MOTION_DDOT":0},{"OBJECT_NAME":"STARLINK-30557","OBJECT_ID":"2023-160N","EPOCH":"2025-08-04T06:30:33.271488","MEAN_MOTION":15.02531944,"ECCENTRICITY":0.000102,"INCLINATION":43.0025,"RA_OF_ASC_NODE":181.5481,"ARG_OF_PERICENTER":267.4787,"MEAN_ANOMALY":92.5939,"EPHEMERIS_TYPE":0,"CLASSIFICATION_TYPE":"U","NORAD_CAT_ID":58087,"ELEMENT_SET_NO":999,"REV_AT_EPOCH":10021,"BSTAR":-3.5773e-6,"MEAN_MOTION_DOT":-2.52e-6,"MEAN_MOTION_DDOT":0},{"OBJECT_NAME":"STARLINK-30591","OBJECT_ID":"2023-160P","EPOCH":"2025-08-04T14:21:11.768832","MEAN_MOTION":15.02535406,"ECCENTRICITY":0.0001029,"INCLINATION":43.0022,"RA_OF_ASC_NODE":179.7036,"ARG_OF_PERICENTER":284.73,"MEAN_ANOMALY":75.3429,"EPHEMERIS_TYPE":0,"CLASSIFICATION_TYPE":"U","NORAD_CAT_ID":58088,"ELEMENT_SET_NO":999,"REV_AT_EPOCH":10026,"BSTAR":4.0454e-5,"MEAN_MOTION_DOT":3.43e-6,"MEAN_MOTION_DDOT":0},{"OBJECT_NAME":"STARLINK-30584","OBJECT_ID":"2023-160Q","EPOCH":"2025-08-04T14:16:24.471552","MEAN_MOTION":15.02534546,"ECCENTRICITY":7.43e-5,"INCLINATION":43.0018,"RA_OF_ASC_NODE":179.6785,"ARG_OF_PERICENTER":311.9118,"MEAN_ANOMALY":48.1661,"EPHEMERIS_TYPE":0,"CLASSIFICATION_TYPE":"U","NORAD_CAT_ID":58089,"ELEMENT_SET_NO":999,"REV_AT_EPOCH":10026,"BSTAR":4.1751e-5,"MEAN_MOTION_DOT":3.61e-6,"MEAN_MOTION_DDOT":0},{"OBJECT_NAME":"STARLINK-30590","OBJECT_ID":"2023-160R","EPOCH":"2025-08-04T14:25:59.951712","MEAN_MOTION":15.02535449,"ECCENTRICITY":0.0001091,"INCLINATION":43.0022,"RA_OF_ASC_NODE":179.7295,"ARG_OF_PERICENTER":274.0058,"MEAN_ANOMALY":86.0659,"EPHEMERIS_TYPE":0,"CLASSIFICATION_TYPE":"U","NORAD_CAT_ID":58090,"ELEMENT_SET_NO":999,"REV_AT_EPOCH":10026,"BSTAR":-3.525e-5,"MEAN_MOTION_DOT":-6.8e-6,"MEAN_MOTION_DDOT":0},{"OBJECT_NAME":"STARLINK-30608","OBJECT_ID":"2023-160S","EPOCH":"2025-08-04T14:11:36.204864","MEAN_MOTION":15.02540018,"ECCENTRICITY":0.0001156,"INCLINATION":43.0022,"RA_OF_ASC_NODE":179.654,"ARG_OF_PERICENTER":288.4295,"MEAN_ANOMALY":71.6421,"EPHEMERIS_TYPE":0,"CLASSIFICATION_TYPE":"U","NORAD_CAT_ID":58091,"ELEMENT_SET_NO":999,"REV_AT_EPOCH":10026,"BSTAR":4.2197e-5,"MEAN_MOTION_DOT":3.67e-6,"MEAN_MOTION_DDOT":0},{"OBJECT_NAME":"STARLINK-30615","OBJECT_ID":"2023-160T","EPOCH":"2025-08-04T14:05:12.745248","MEAN_MOTION":15.02535747,"ECCENTRICITY":0.0001004,"INCLINATION":43.0024,"RA_OF_ASC_NODE":179.6146,"ARG_OF_PERICENTER":282.7544,"MEAN_ANOMALY":77.3187,"EPHEMERIS_TYPE":0,"CLASSIFICATION_TYPE":"U","NORAD_CAT_ID":58092,"ELEMENT_SET_NO":999,"REV_AT_EPOCH":10026,"BSTAR":6.2646e-5,"MEAN_MOTION_DOT":6.43e-6,"MEAN_MOTION_DDOT":0},{"OBJECT_NAME":"STARLINK-30578","OBJECT_ID":"2023-160U","EPOCH":"2025-08-04T05:34:46.615872","MEAN_MOTION":15.02535074,"ECCENTRICITY":9.46e-5,"INCLINATION":43.0009,"RA_OF_ASC_NODE":182.11,"ARG_OF_PERICENTER":280.9163,"MEAN_ANOMALY":79.1572,"EPHEMERIS_TYPE":0,"CLASSIFICATION_TYPE":"U","NORAD_CAT_ID":58093,"ELEMENT_SET_NO":999,"REV_AT_EPOCH":10020,"BSTAR":9.4281e-6,"MEAN_MOTION_DOT":-7.6e-7,"MEAN_MOTION_DDOT":0},{"OBJECT_NAME":"STARLINK-30574","OBJECT_ID":"2023-160V","EPOCH":"2025-08-04T14:02:01.188672","MEAN_MOTION":15.02535334,"ECCENTRICITY":0.0001093,"INCLINATION":43.0032,"RA_OF_ASC_NODE":179.6028,"ARG_OF_PERICENTER":286.4667,"MEAN_ANOMALY":73.6055,"EPHEMERIS_TYPE":0,"CLASSIFICATION_TYPE":"U","NORAD_CAT_ID":58094,"ELEMENT_SET_NO":999,"REV_AT_EPOCH":10026,"BSTAR":7.2027e-6,"MEAN_MOTION_DOT":-1.06e-6,"MEAN_MOTION_DDOT":0},{"OBJECT_NAME":"STARLINK-30570","OBJECT_ID":"2023-160W","EPOCH":"2025-08-04T13:57:13.049856","MEAN_MOTION":15.02530772,"ECCENTRICITY":0.0001657,"INCLINATION":43.0042,"RA_OF_ASC_NODE":179.5763,"ARG_OF_PERICENTER":266.8876,"MEAN_ANOMALY":93.1777,"EPHEMERIS_TYPE":0,"CLASSIFICATION_TYPE":"U","NORAD_CAT_ID":58095,"ELEMENT_SET_NO":999,"REV_AT_EPOCH":10026,"BSTAR":-4.4764e-5,"MEAN_MOTION_DOT":-8.08e-6,"MEAN_MOTION_DDOT":0},{"OBJECT_NAME":"STARLINK-30581","OBJECT_ID":"2023-160X","EPOCH":"2025-08-04T09:00:36.921312","MEAN_MOTION":15.02535613,"ECCENTRICITY":0.0001047,"INCLINATION":43.0017,"RA_OF_ASC_NODE":181.4584,"ARG_OF_PERICENTER":291.7587,"MEAN_ANOMALY":68.3144,"EPHEMERIS_TYPE":0,"CLASSIFICATION_TYPE":"U","NORAD_CAT_ID":58096,"ELEMENT_SET_NO":999,"REV_AT_EPOCH":10022,"BSTAR":3.3579e-5,"MEAN_MOTION_DOT":2.5e-6,"MEAN_MOTION_DDOT":0},{"OBJECT_NAME":"STARLINK-30594","OBJECT_ID":"2023-161A","EPOCH":"2025-08-04T01:42:21.649824","MEAN_MOTION":15.30191005,"ECCENTRICITY":0.000116,"INCLINATION":53.1597,"RA_OF_ASC_NODE":96.3208,"ARG_OF_PERICENTER":74.4258,"MEAN_ANOMALY":285.687,"EPHEMERIS_TYPE":0,"CLASSIFICATION_TYPE":"U","NORAD_CAT_ID":58097,"ELEMENT_SET_NO":999,"REV_AT_EPOCH":10110,"BSTAR":4.6869e-6,"MEAN_MOTION_DOT":-2.2e-6,"MEAN_MOTION_DDOT":0},{"OBJECT_NAME":"STARLINK-30614","OBJECT_ID":"2023-161B","EPOCH":"2025-08-03T22:29:42.354528","MEAN_MOTION":15.30119493,"ECCENTRICITY":0.0001435,"INCLINATION":53.1628,"RA_OF_ASC_NODE":96.9085,"ARG_OF_PERICENTER":33.2922,"MEAN_ANOMALY":326.8169,"EPHEMERIS_TYPE":0,"CLASSIFICATION_TYPE":"U","NORAD_CAT_ID":58098,"ELEMENT_SET_NO":999,"REV_AT_EPOCH":10095,"BSTAR":0.0004969,"MEAN_MOTION_DOT":0.0001435,"MEAN_MOTION_DDOT":0},{"OBJECT_NAME":"STARLINK-30607","OBJECT_ID":"2023-161C","EPOCH":"2025-08-03T08:27:53.650656","MEAN_MOTION":15.30183871,"ECCENTRICITY":7.57e-5,"INCLINATION":53.159,"RA_OF_ASC_NODE":89.6638,"ARG_OF_PERICENTER":93.9756,"MEAN_ANOMALY":266.1332,"EPHEMERIS_TYPE":0,"CLASSIFICATION_TYPE":"U","NORAD_CAT_ID":58099,"ELEMENT_SET_NO":999,"REV_AT_EPOCH":10112,"BSTAR":3.0782e-5,"MEAN_MOTION_DOT":5.53e-6,"MEAN_MOTION_DDOT":0},{"OBJECT_NAME":"STARLINK-30600","OBJECT_ID":"2023-161D","EPOCH":"2025-08-02T02:49:52.570848","MEAN_MOTION":15.30193165,"ECCENTRICITY":0.0001164,"INCLINATION":53.1607,"RA_OF_ASC_NODE":105.4514,"ARG_OF_PERICENTER":89.1258,"MEAN_ANOMALY":270.9876,"EPHEMERIS_TYPE":0,"CLASSIFICATION_TYPE":"U","NORAD_CAT_ID":58100,"ELEMENT_SET_NO":999,"REV_AT_EPOCH":10080,"BSTAR":1.1686e-5,"MEAN_MOTION_DOT":-1.3e-7,"MEAN_MOTION_DDOT":0},{"OBJECT_NAME":"STARLINK-30605","OBJECT_ID":"2023-161E","EPOCH":"2025-08-03T22:23:37.020768","MEAN_MOTION":15.30195187,"ECCENTRICITY":0.0001258,"INCLINATION":53.1589,"RA_OF_ASC_NODE":96.8814,"ARG_OF_PERICENTER":71.7092,"MEAN_ANOMALY":288.4045,"EPHEMERIS_TYPE":0,"CLASSIFICATION_TYPE":"U","NORAD_CAT_ID":58101,"ELEMENT_SET_NO":999,"REV_AT_EPOCH":10108,"BSTAR":4.9193e-5,"MEAN_MOTION_DOT":1.098e-5,"MEAN_MOTION_DDOT":0}]
