STARLINK-30609          
1 58085U 23160L   25216.60804443  .00000038  00000+0  17850-4 0  9998
2 58085  43.0023 179.7789 0001252 276.1544  83.9156 15.02533984100268
STARLINK-30583          
1 58086U 23160M   25216.60469037  .00001832  00000+0  15058-3 0  9995
2 58086  43.0014 179.7524 0001336 275.1593  84.9097 15.02551649100265
STARLINK-30557          
1 58087U 23160N   25216.27121842 -.00000252  00000+0 -35773-5 0  9993
2 58087  43.0025 181.5481 0001020 267.4787  92.5939 15.02531944100211
STARLINK-30591          
1 58088U 23160P   25216.59805288  .00000343  00000+0  40454-4 0  9992
2 58088  43.0022 179.7036 0001029 284.7300  75.3429 15.02535406100261
STARLINK-30584          
1 58089U 23160Q   25216.59472768  .00000361  00000+0  41751-4 0  9997
2 58089  43.0018 179.6785 0000743 311.9118  48.1661 15.02534546100269
STARLINK-30590          
1 58090U 23160R   25216.60138833 -.00000680  00000+0 -35250-4 0  9996
2 58090  43.0022 179.7295 0001091 274.0058  86.0659 15.02535449100263
STARLINK-30608          
1 58091U 23160S   25216.59139126  .00000367  00000+0  42197-4 0  9999
2 58091  43.0022 179.6540 0001156 288.4295  71.6421 15.02540018100265
STARLINK-30615          
1 58092U 23160T   25216.58695307  .00000643  00000+0  62646-4 0  9995
2 58092  43.0024 179.6146 0001004 282.7544  77.3187 15.02535747100261
STARLINK-30578          
1 58093U 23160U   25216.23248398 -.00000076  00000+0  94281-5 0  9994
2 58093  43.0009 182.1100 0000946 280.9163  79.1572 15.02535074100200
STARLINK-30574          
1 58094U 23160V   25216.58473598 -.00000106  00000+0  72027-5 0  9993
2 58094  43.0032 179.6028 0001093 286.4667  73.6055 15.02535334100261
STARLINK-30570          
1 58095U 23160W   25216.58140104 -.00000808  00000+0 -44764-4 0  9994
2 58095  43.0042 179.5763 0001657 266.8876  93.1777 15.02530772100267
STARLINK-30581          
1 58096U 23160X   25216.37542733  .00000250  00000+0  33579-4 0  9997
2 58096  43.0017 181.4584 0001047 291.7587  68.3144 15.02535613100229
STARLINK-30594          
1 58097U 23161A   25216.07108391 -.00000220  00000+0  46869-5 0  9999
2 58097  53.1597  96.3208 0001160  74.4258 285.6870 15.30191005101101
STARLINK-30614          
1 58098U 23161B   25215.93729577  .00014350  00000+0  49690-3 0  9990
2 58098  53.1628  96.9085 0001435  33.2922 326.8169 15.30119493100954
STARLINK-30607          
1 58099U 23161C   25215.35270429  .00000553  00000+0  30782-4 0  9997
2 58099  53.1590  89.6638 0000757  93.9756 266.1332 15.30183871101129
STARLINK-30600          
1 58100U 23161D   25214.11796957 -.00000013  00000+0  11686-4 0  9996
2 58100  53.1607 105.4514 0001164  89.1258 270.9876 15.30193165100805
STARLINK-30605          
1 58101U 23161E   25215.93306737  .00001098  00000+0  49193-4 0  9998
2 58101  53.1589  96.8814 0001258  71.7092 288.4045 15.30195187101087
